[
    {
        "Altitude(m)": 617719.7577812416,
        "Argument of Periapsis(deg)": 0.0,
        "Eccentricity": 0.0,
        "Inclination(deg)": 60.0,
        "Latitude(deg)": -41.10260447386945,
        "Longitude(deg)": 5.094723655687235,
        "Mean Anomaly(deg)": -130.90909999999997,
        "RAAN(deg)": 255.0,
        "Satellite Name": "Test1 1136",
        "Satellite Number": 1136,
        "Semi-Major Axis(m)": 6980739.136638005,
        "Time(s)": 0
    },
    {
        "Altitude(m)": 617911.2933708057,
        "Argument of Periapsis(deg)": 0.00010418945913296404,
        "Eccentricity": 0.0,
        "Inclination(deg)": 60.0,
        "Latitude(deg)": -41.56579567586466,
        "Longitude(deg)": 5.599131184381356,
        "Mean Anomaly(deg)": -130.2889938545381,
        "RAAN(deg)": 254.99957995086027,
        "Satellite Name": "Test1 1136",
        "Satellite Number": 1136,
        "Semi-Major Axis(m)": 6980739.136638005,
        "Time(s)": 10
    },
    {
        "Altitude(m)": 618101.7037329474,
        "Argument of Periapsis(deg)": 0.0002083789182659281,
        "Eccentricity": 0.0,
        "Inclination(deg)": 60.0,
        "Latitude(deg)": -42.026308364519245,
        "Longitude(deg)": 6.11134608771845,
        "Mean Anomaly(deg)": -129.66888770907624,
        "RAAN(deg)": 254.9991599017205,
        "Satellite Name": "Test1 1136",
        "Satellite Number": 1136,
        "Semi-Major Axis(m)": 6980739.136638005,
        "Time(s)": 20
    },
    {
        "Altitude(m)": 618290.9158404879,
        "Argument of Periapsis(deg)": 0.00031256837739889213,
        "Eccentricity": 0.0,
        "Inclination(deg)": 60.0,
        "Latitude(deg)": -42.484062292967295,
        "Longitude(deg)": 6.6315630499812475,
        "Mean Anomaly(deg)": -129.04878156361445,
        "RAAN(deg)": 254.9987398525808,
        "Satellite Name": "Test1 1136",
        "Satellite Number": 1136,
        "Semi-Major Axis(m)": 6980739.136638005,
        "Time(s)": 30
    },
    {
        "Altitude(m)": 618478.85704346,
        "Argument of Periapsis(deg)": 0.0004167578365318562,
        "Eccentricity": 0.0,
        "Inclination(deg)": 60.0,
        "Latitude(deg)": -42.9389746892947,
        "Longitude(deg)": 7.1599805490530155,
        "Mean Anomaly(deg)": -128.4286754181526,
        "RAAN(deg)": 254.99831980344106,
        "Satellite Name": "Test1 1136",
        "Satellite Number": 1136,
        "Semi-Major Axis(m)": 6980739.136638005,
        "Time(s)": 40
    },
    {
        "Altitude(m)": 618665.4551007674,
        "Argument of Periapsis(deg)": 0.0005209472956648203,
        "Eccentricity": 0.0,
        "Inclination(deg)": 60.0,
        "Latitude(deg)": -43.390960178428905,
        "Longitude(deg)": 7.696799758497626,
        "Mean Anomaly(deg)": -127.80856927269083,
        "RAAN(deg)": 254.9978997543013,
        "Satellite Name": "Test1 1136",
        "Satellite Number": 1136,
        "Semi-Major Axis(m)": 6980739.136638005,
        "Time(s)": 50
    },
    {
        "Altitude(m)": 618850.6382116317,
        "Argument of Periapsis(deg)": 0.0006251367547977843,
        "Eccentricity": 0.0,
        "Inclination(deg)": 60.0,
        "Latitude(deg)": -43.83993070338563,
        "Longitude(deg)": 8.242224942761876,
        "Mean Anomaly(deg)": -127.18846312722899,
        "RAAN(deg)": 254.99747970516154,
        "Satellite Name": "Test1 1136",
        "Satellite Number": 1136,
        "Semi-Major Axis(m)": 6980739.136638005,
        "Time(s)": 60
    },
    {
        "Altitude(m)": 619034.3350468292,
        "Argument of Periapsis(deg)": 0.0007293262139307483,
        "Eccentricity": 0.0,
        "Inclination(deg)": 60.0,
        "Latitude(deg)": -44.285795446105844,
        "Longitude(deg)": 8.796463830759745,
        "Mean Anomaly(deg)": -126.56835698176718,
        "RAAN(deg)": 254.99705965602183,
        "Satellite Name": "Test1 1136",
        "Satellite Number": 1136,
        "Semi-Major Axis(m)": 6980739.136638005,
        "Time(s)": 70
    },
    {
        "Altitude(m)": 619216.4747796938,
        "Argument of Periapsis(deg)": 0.0008335156730637124,
        "Eccentricity": 0.0,
        "Inclination(deg)": 60.0,
        "Latitude(deg)": -44.72846074815399,
        "Longitude(deg)": 9.359726452980025,
        "Mean Anomaly(deg)": -125.94825083630533,
        "RAAN(deg)": 254.9966396068821,
        "Satellite Name": "Test1 1136",
        "Satellite Number": 1136,
        "Semi-Major Axis(m)": 6980739.136638005,
        "Time(s)": 80
    },
    {
        "Altitude(m)": 619396.9871168952,
        "Argument of Periapsis(deg)": 0.0009377051321966765,
        "Eccentricity": 0.0,
        "Inclination(deg)": 60.0,
        "Latitude(deg)": -45.16783003157225,
        "Longitude(deg)": 9.93222546575744,
        "Mean Anomaly(deg)": -125.32814469084357,
        "RAAN(deg)": 254.99621955774234,
        "Satellite Name": "Test1 1136",
        "Satellite Number": 1136,
        "Semi-Major Axis(m)": 6980739.136638005,
        "Time(s)": 90
    },
    {
        "Altitude(m)": 619575.8023289258,
        "Argument of Periapsis(deg)": 0.0010418945913296407,
        "Eccentricity": 0.0,
        "Inclination(deg)": 60.0,
        "Latitude(deg)": -45.603803720237615,
        "Longitude(deg)": 10.51417644760986,
        "Mean Anomaly(deg)": -124.70803854538173,
        "RAAN(deg)": 254.99579950860257,
        "Satellite Name": "Test1 1136",
        "Satellite Number": 1136,
        "Semi-Major Axis(m)": 6980739.136638005,
        "Time(s)": 100
    },
    {
        "Altitude(m)": 619752.851280344,
        "Argument of Periapsis(deg)": 0.0011460840504626045,
        "Eccentricity": 0.0,
        "Inclination(deg)": 60.0,
        "Latitude(deg)": -46.03627916210775,
        "Longitude(deg)": 11.105796652423692,
        "Mean Anomaly(deg)": -124.08793239991982,
        "RAAN(deg)": 254.99537945946287,
        "Satellite Name": "Test1 1136",
        "Satellite Number": 1136,
        "Semi-Major Axis(m)": 6980739.136638005,
        "Time(s)": 110
    },
    {
        "Altitude(m)": 619928.0654597351,
        "Argument of Periapsis(deg)": 0.0012502735095955685,
        "Eccentricity": 0.0,
        "Inclination(deg)": 60.0,
        "Latitude(deg)": -46.465150552783385,
        "Longitude(deg)": 11.707305242779187,
        "Mean Anomaly(deg)": -123.46782625445807,
        "RAAN(deg)": 254.99495941032313,
        "Satellite Name": "Test1 1136",
        "Satellite Number": 1136,
        "Semi-Major Axis(m)": 6980739.136638005,
        "Time(s)": 120
    },
    {
        "Altitude(m)": 620101.3770093564,
        "Argument of Periapsis(deg)": 0.0013544629687285324,
        "Eccentricity": 0.0,
        "Inclination(deg)": 60.0,
        "Latitude(deg)": -46.890308860870704,
        "Longitude(deg)": 12.318923487978795,
        "Mean Anomaly(deg)": -122.84772010899621,
        "RAAN(deg)": 254.99453936118337,
        "Satellite Name": "Test1 1136",
        "Satellite Number": 1136,
        "Semi-Major Axis(m)": 6980739.136638005,
        "Time(s)": 130
    },
    {
        "Altitude(m)": 620272.7187545098,
        "Argument of Periapsis(deg)": 0.0014586524278614966,
        "Eccentricity": 0.0,
        "Inclination(deg)": 60.0,
        "Latitude(deg)": -47.31164175568074,
        "Longitude(deg)": 12.940873411239586,
        "Mean Anomaly(deg)": -122.22761396353437,
        "RAAN(deg)": 254.9941193120436,
        "Satellite Name": "Test1 1136",
        "Satellite Number": 1136,
        "Semi-Major Axis(m)": 6980739.136638005,
        "Time(s)": 140
    },
    {
        "Altitude(m)": 620442.0242325536,
        "Argument of Periapsis(deg)": 0.0015628418869944607,
        "Eccentricity": 0.0,
        "Inclination(deg)": 60.0,
        "Latitude(deg)": -47.72903353785411,
        "Longitude(deg)": 13.573377909050137,
        "Mean Anomaly(deg)": -121.60750781807256,
        "RAAN(deg)": 254.9936992629039,
        "Satellite Name": "Test1 1136",
        "Satellite Number": 1136,
        "Semi-Major Axis(m)": 6980739.136638005,
        "Time(s)": 150
    },
    {
        "Altitude(m)": 620609.2277216192,
        "Argument of Periapsis(deg)": 0.0016670313461274247,
        "Eccentricity": 0.0,
        "Inclination(deg)": 60.0,
        "Latitude(deg)": -48.14236507356503,
        "Longitude(deg)": 14.216660826992026,
        "Mean Anomaly(deg)": -120.98740167261072,
        "RAAN(deg)": 254.99327921376417,
        "Satellite Name": "Test1 1136",
        "Satellite Number": 1136,
        "Semi-Major Axis(m)": 6980739.136638005,
        "Time(s)": 160
    },
    {
        "Altitude(m)": 620774.2642689584,
        "Argument of Periapsis(deg)": 0.0017712208052603888,
        "Eccentricity": 0.0,
        "Inclination(deg)": 60.0,
        "Latitude(deg)": -48.55151373302487,
        "Longitude(deg)": 14.87094547628295,
        "Mean Anomaly(deg)": -120.36729552714885,
        "RAAN(deg)": 254.9928591646244,
        "Satellite Name": "Test1 1136",
        "Satellite Number": 1136,
        "Semi-Major Axis(m)": 6980739.136638005,
        "Time(s)": 170
    },
    {
        "Altitude(m)": 620937.0697189565,
        "Argument of Periapsis(deg)": 0.001875410264393353,
        "Eccentricity": 0.0,
        "Inclination(deg)": 60.0,
        "Latitude(deg)": -48.95635333406347,
        "Longitude(deg)": 15.536454613878716,
        "Mean Anomaly(deg)": -119.74718938168701,
        "RAAN(deg)": 254.99243911548464,
        "Satellite Name": "Test1 1136",
        "Satellite Number": 1136,
        "Semi-Major Axis(m)": 6980739.136638005,
        "Time(s)": 180
    },
    {
        "Altitude(m)": 621097.5807407671,
        "Argument of Periapsis(deg)": 0.0019795997235263173,
        "Eccentricity": 0.0,
        "Inclination(deg)": 60.0,
        "Latitude(deg)": -49.356754091645456,
        "Longitude(deg)": 16.213410370361018,
        "Mean Anomaly(deg)": -119.1270832362252,
        "RAAN(deg)": 254.99201906634494,
        "Satellite Name": "Test1 1136",
        "Satellite Number": 1136,
        "Semi-Major Axis(m)": 6980739.136638005,
        "Time(s)": 190
    }
]